OPS 6582 (TRANSIT 5B-5) 
1 00965U 64083D   23169.33614047  .00000079  00000+0  98793-4 0  9995
2 00965  90.0327 196.6938 0039340 237.8667 132.9130 13.56826587895139
OSCAR 7 (AO-7)          
1 07530U 74089B   23169.40767392 -.00000049  00000+0 -15428-4 0  9990
2 07530 101.9466 156.0927 0012639  62.1147 107.1077 12.53664850223321
UOSAT 2 (UO-11)         
1 14781U 84021B   23169.40539594  .00001490  00000+0  18107-3 0  9999
2 14781  97.6572 146.2884 0007799 186.7257 173.3855 14.84910694 94326
NOAA 9                  
1 15427U 84123A   23169.42381366  .00000137  00000+0  92290-4 0  9997
2 15427  99.0893 153.5149 0014291 205.1752 317.4097 14.16370873988417
LUSAT (LO-19)           
1 20442U 90005G   23169.35769855  .00000174  00000+0  79838-4 0  9995
2 20442  98.8436 145.8981 0011837 169.8569 190.2855 14.33264893745517
ITAMSAT (IO-26)         
1 22826U 93061D   23169.40038526  .00000170  00000+0  82667-4 0  9998
2 22826  98.8350 212.1737 0009872  55.0837 305.1271 14.30671830550734
RADIO ROSTO (RS-15)     
1 23439U 94085A   23169.42090081 -.00000034  00000+0  24229-3 0  9991
2 23439  64.8172 273.6904 0162434 210.0142 149.1394 11.27574576172468
JAS-2 (FO-29)           
1 24278U 96046B   23169.37374497  .00000032  00000+0  66289-4 0  9992
2 24278  98.5282 147.7662 0351178  53.9242 309.3889 13.53146842325098
NOAA 15                 
1 25338U 98030A   23169.48967902  .00000250  00000+0  12230-3 0  9994
2 25338  98.6050 198.5243 0009384 314.8766  45.1651 14.26335471305198
TECHSAT 1B (GO-32)      
1 25397U 98043D   23169.34471365  .00000088  00000+0  58300-4 0  9999
2 25397  98.8689 126.8105 0002255 111.6577 248.4841 14.23879532295495
ISS (ZARYA)             
1 25544U 98067A   23169.82265602  .00013379  00000+0  24060-3 0  9999
2 25544  51.6427 320.4196 0004512  57.8268 101.2500 15.50160338402041
ORSTED                  
1 25635U 99008B   23169.14344377  .00000960  00000+0  23062-3 0  9991
2 25635  96.4639 313.2324 0138774  93.3088 268.3997 14.49078559283491
PHASE 3D (AO-40)        
1 26609U 00072B   23168.79760757 -.00000133  00000+0  00000+0 0  9996
2 26609   6.0616 181.0813 7914123 168.4673 238.5375  1.25587468103742
PCSAT (NO-44)           
1 26931U 01043C   23169.45879446  .00000151  00000+0  88976-4 0  9995
2 26931  67.0495 193.5421 0008085 272.2320  87.7855 14.30927300133767
SAUDISAT 1C (SO-50)     
1 27607U 02058C   23169.51926470  .00001519  00000+0  22512-3 0  9992
2 27607  64.5544 260.8455 0068946 224.4359 135.1201 14.77323889102428
CUTE-1 (CO-55)          
1 27844U 03031E   23169.23420730  .00000389  00000+0  19293-3 0  9990
2 27844  98.6769 176.4756 0010936 119.2282 240.9991 14.22790006 35881
CUBESAT XI-IV (CO-57)   
1 27848U 03031J   23169.24565815  .00000338  00000+0  17180-3 0  9996
2 27848  98.6807 176.9023 0010614 132.7668 227.4404 14.22299604 35653
MOZHAYETS 4 (RS-22)     
1 27939U 03042A   23169.49194845  .00001331  00000+0  23856-3 0  9998
2 27939  98.2433 316.4619 0013532 129.3659 304.0758 14.68401039 54608
INMARSAT 4-F1           
1 28628U 05009A   23169.50605112 -.00000259  00000+0  00000+0 0  9996
2 28628   3.9132  38.5011 0002517  53.8644 139.7799  1.00271791 66699
NOAA 18                 
1 28654U 05018A   23169.48253391  .00000236  00000+0  15068-3 0  9998
2 28654  98.9095 243.8666 0014468  21.0935 339.0831 14.12954165931665
CUBESAT XI-V            
1 28895U 05043F   23169.09556025  .00001647  00000+0  31102-3 0  9994
2 28895  98.1539 301.1479 0017455  71.6295 288.6804 14.65674409940944
METOP-A                 
1 29499U 06044A   23169.51264060  .00001049  00000+0  14497-3 0  9993
2 29499  98.4003 229.9962 0192919 298.8798 173.3983 14.68588752864376
CARTOSAT-2 (IRS-P7)     
1 29710U 07001B   23169.33322262  .00043327  00000+0  57884-3 0  9994
2 29710  97.8932 306.7022 0097981 196.6363 163.1667 15.52323340892486
CAPE-1                  
1 31130U 07012P   23168.77770439  .00001079  00000+0  23052-3 0  9993
2 31130  98.3081 112.8617 0091787 240.6455 118.5553 14.58383753858313
CARTOSAT-2A             
1 32783U 08021A   23169.44305179  .00001433  00000+0  20231-3 0  9999
2 32783  97.9160 229.8871 0013730  65.7386 294.5258 14.78655671817015
CUTE-1.7+APD II (CO-65) 
1 32785U 08021C   23169.33695267  .00003493  00000+0  34684-3 0  9994
2 32785  97.7060 135.2667 0014035  98.5971 261.6839 14.92300100820991
COMPASS-1               
1 32787U 08021E   23169.38333403  .00007276  00000+0  56905-3 0  9995
2 32787  97.5881 145.8389 0010965  28.9674 331.2157 15.01308642822837
AAUSAT-II               
1 32788U 08021F   23169.21510806  .00009432  00000+0  68739-3 0  9996
2 32788  97.5603 148.6094 0007670   7.5242 352.6098 15.03928699823268
DELFI-C3 (DO-64)        
1 32789U 08021G   23169.01347495  .00053330  00000+0  14735-2 0  9999
2 32789  97.3013 190.4924 0009239 121.6470 238.5677 15.36827230827515
SEEDS II (CO-66)        
1 32791U 08021J   23168.80718374  .00006785  00000+0  59742-3 0  9996
2 32791  97.6557 140.0292 0013755  56.8239 303.4300 14.96725116821753
YUBILEINY (RS-30)       
1 32953U 08025A   23169.41170756  .00000018  00000+0  56471-4 0  9994
2 32953  82.5027 316.3330 0019814 179.2907 180.8205 12.43125395683663
FENGYUN 3A              
1 32958U 08026A   23168.84616318  .00000131  00000+0  83078-4 0  9994
2 32958  98.5552 122.6234 0009712  52.0220 308.1832 14.18878287780030
PRISM (HITOMI)          
1 33493U 09002B   23169.31721220  .00010721  00000+0  72715-3 0  9997
2 33493  98.2444 183.9137 0017023  48.0089 312.2583 15.06520250783917
STARS (KUKAI)           
1 33498U 09002G   23169.49382276  .00002796  00000+0  35870-3 0  9999
2 33498  98.1366  72.3722 0011097 142.8778 217.3203 14.82034923775609
KKS-1 (KISEKI)          
1 33499U 09002H   23169.41166561  .00001320  00000+0  19440-3 0  9996
2 33499  98.1732  61.7452 0007774 216.4760 143.5921 14.77083230774240
NOAA 19                 
1 33591U 09005A   23169.45631823  .00000212  00000+0  13873-3 0  9997
2 33591  99.0991 215.4037 0013014 236.7924 123.2000 14.12771486739866
SWISSCUBE               
1 35932U 09051B   23169.42612870  .00001133  00000+0  25869-3 0  9998
2 35932  98.5210  39.8126 0007804  12.6803 347.4590 14.57739141729391
BEESAT-1                
1 35933U 09051C   23169.18213410  .00000982  00000+0  22607-3 0  9997
2 35933  98.5143  40.8896 0006321  27.8154 332.3381 14.57645074729430
ITUPSAT1                
1 35935U 09051E   23169.29168118  .00000903  00000+0  21304-3 0  9991
2 35935  98.5241  40.9464 0008667  28.8086 331.3589 14.56694273729122
XIWANG-1 (HOPE-1)       
1 36122U 09072B   23169.37771936 -.00000026  00000+0  45543-4 0  9999
2 36122 100.2380 133.2171 0006996 216.1569 143.9072 13.16383855648959
CARTOSAT-2B             
1 36795U 10035A   23169.48041000  .00001085  00000+0  15462-3 0  9991
2 36795  97.9103 229.8196 0014442 136.1896 224.0464 14.78725227698074
TISAT 1                 
1 36799U 10035E   23169.34954616  .00004072  00000+0  36525-3 0  9998
2 36799  98.1364  39.0286 0010668 337.8787  22.1971 14.96320248702403
FENGYUN 3B              
1 37214U 10059A   23169.49363750  .00000115  00000+0  83861-4 0  9996
2 37214  99.0831 186.8862 0022960  44.6856 113.0460 14.14347368652650
JUGNU                   
1 37839U 11058B   23169.54938135  .00000446  00000+0  94970-4 0  9990
2 37839  19.9603 114.6633 0018765 233.5812 280.9233 14.12963966603974
SRMSAT                  
1 37841U 11058D   23169.41549113  .00000450  00000+0  10208-3 0  9999
2 37841  19.9703 202.5999 0012001  45.9048 342.5009 14.10903390602982
M-CUBED & EXP-1 PRIME   
1 37855U 11061F   23168.86097539  .00034065  00000+0  10581-2 0  9998
2 37855 101.7059 130.9356 0119000  38.7211 322.2467 15.26573987636669
HORYU-2                 
1 38340U 12025D   23169.47982948  .00002909  00000+0  40461-3 0  9997
2 38340  98.1715 258.1725 0012023 130.2218 230.0047 14.78582711586285
METOP-B                 
1 38771U 12049A   23169.51474757  .00000163  00000+0  94424-4 0  9999
2 38771  98.6783 228.8675 0001338  83.5222  28.2000 14.21499621557743
SARAL                   
1 39086U 13009A   23169.49657824  .00000130  00000+0  64286-4 0  9998
2 39086  98.5474 354.7669 0000762 299.5318  60.5789 14.32224157538874
AAUSAT 3                
1 39087U 13009B   23169.53274537  .00000766  00000+0  27357-3 0  9992
2 39087  98.3813   4.6329 0010924 252.4278 107.5715 14.36805205539806
STRAND-1                
1 39090U 13009E   23169.25766611  .00000363  00000+0  14085-3 0  9991
2 39090  98.3884   2.5895 0007701 260.3201  99.7115 14.35606762539875
BRITE-AUSTRIA           
1 39091U 13009F   23169.32609851  .00000221  00000+0  91560-4 0  9999
2 39091  98.3912   1.8831 0009169 267.9814  92.0322 14.35491797539914
UNIBRITE                
1 39092U 13009G   23169.10172135  .00000233  00000+0  96170-4 0  9991
2 39092  98.3949   1.5014 0008075 263.5270  96.4996 14.35363828539837
SOMP                    
1 39134U 13015E   23168.93431064  .00114083  00000+0  12229-2 0  9994
2 39134  64.8487 282.6725 0018479 268.8539  91.0492 15.63027959563108
BEESAT-3                
1 39135U 13015F   23169.52573212  .00040591  00000+0  90045-3 0  9998
2 39135  64.8584 332.5394 0020214 244.3588 115.5463 15.43298183562147
BEESAT-2                
1 39136U 13015G   23168.85919062  .00033343  00000+0  81870-3 0  9994
2 39136  64.8683 346.3546 0027520 272.6941  87.1046 15.40136299561780
NEE-01 PEGASO           
1 39151U 13018B   23168.99873263  .00002723  00000+0  34255-3 0  9994
2 39151  98.0100 279.1688 0016968 145.8351 214.3958 14.82800159547801
CUBEBUG-1 (CAPITAN BETO)
1 39153U 13018D   23169.26450067  .00003416  00000+0  41732-3 0  9998
2 39153  98.0395 285.4887 0016805 139.2885 220.9588 14.83866165547957
ESTCUBE 1               
1 39161U 13021C   23169.44179529  .00001825  00000+0  28286-3 0  9993
2 39161  97.8718 241.6708 0008404 334.3941  25.6851 14.74330848543318
